[{"OBJECT_NAME":"SAPPHIRE","OBJECT_ID":"2013-009C","EPOCH":"2026-02-21T07:03:46.245600","MEAN_MOTION":14.35200876,"ECCENTRICITY":0.00103172,"INCLINATION":98.4203,"RA_OF_ASC_NODE":234.5154,"ARG_OF_PERICENTER":230.3815,"MEAN_ANOMALY":129.646,"EPHEMERIS_TYPE":0,"CLASSIFICATION_TYPE":"U","NORAD_CAT_ID":39088,"ELEMENT_SET_NO":999,"REV_AT_EPOCH":67995,"BSTAR":5.9213815e-05,"MEAN_MOTION_DOT":1.27e-06,"MEAN_MOTION_DDOT":0},{"OBJECT_NAME":"PRAETORIAN SDA_602","OBJECT_ID":"2025-203A","EPOCH":"2026-02-21T05:42:39.447648","MEAN_MOTION":13.84414283,"ECCENTRICITY":0.00068881,"INCLINATION":81.3024,"RA_OF_ASC_NODE":118.1811,"ARG_OF_PERICENTER":142.0587,"MEAN_ANOMALY":218.1056,"EPHEMERIS_TYPE":0,"CLASSIFICATION_TYPE":"U","NORAD_CAT_ID":65565,"ELEMENT_SET_NO":999,"REV_AT_EPOCH":2265,"BSTAR":7.2427573e-05,"MEAN_MOTION_DOT":9.3e-07,"MEAN_MOTION_DDOT":0},{"OBJECT_NAME":"PRAETORIAN SDA_603","OBJECT_ID":"2025-203B","EPOCH":"2026-02-21T05:29:07.443168","MEAN_MOTION":13.84084865,"ECCENTRICITY":0.00104699,"INCLINATION":81.3028,"RA_OF_ASC_NODE":118.024,"ARG_OF_PERICENTER":144.1718,"MEAN_ANOMALY":216.0143,"EPHEMERIS_TYPE":0,"CLASSIFICATION_TYPE":"U","NORAD_CAT_ID":65566,"ELEMENT_SET_NO":999,"REV_AT_EPOCH":2266,"BSTAR":7.809675e-06,"MEAN_MOTION_DOT":2.1e-07,"MEAN_MOTION_DDOT":0},{"OBJECT_NAME":"PRAETORIAN SDA_604","OBJECT_ID":"2025-203C","EPOCH":"2026-02-21T05:57:01.883808","MEAN_MOTION":13.83109299,"ECCENTRICITY":0.00066511,"INCLINATION":81.305,"RA_OF_ASC_NODE":118.2392,"ARG_OF_PERICENTER":146.0527,"MEAN_ANOMALY":214.1056,"EPHEMERIS_TYPE":0,"CLASSIFICATION_TYPE":"U","NORAD_CAT_ID":65567,"ELEMENT_SET_NO":999,"REV_AT_EPOCH":2265,"BSTAR":0.00047213294,"MEAN_MOTION_DOT":5.28e-06,"MEAN_MOTION_DDOT":0},{"OBJECT_NAME":"PRAETORIAN SDA_605","OBJECT_ID":"2025-203D","EPOCH":"2026-02-21T05:58:44.254848","MEAN_MOTION":13.83680463,"ECCENTRICITY":0.00095472,"INCLINATION":81.3006,"RA_OF_ASC_NODE":118.0209,"ARG_OF_PERICENTER":141.6703,"MEAN_ANOMALY":218.5133,"EPHEMERIS_TYPE":0,"CLASSIFICATION_TYPE":"U","NORAD_CAT_ID":65568,"ELEMENT_SET_NO":999,"REV_AT_EPOCH":2266,"BSTAR":-1.7504675e-05,"MEAN_MOTION_DOT":-7e-08,"MEAN_MOTION_DDOT":0},{"OBJECT_NAME":"PRAETORIAN SDA_606","OBJECT_ID":"2025-203E","EPOCH":"2026-02-20T05:19:44.342400","MEAN_MOTION":13.83594929,"ECCENTRICITY":0.00068513,"INCLINATION":81.3047,"RA_OF_ASC_NODE":119.1532,"ARG_OF_PERICENTER":140.8438,"MEAN_ANOMALY":219.3215,"EPHEMERIS_TYPE":0,"CLASSIFICATION_TYPE":"U","NORAD_CAT_ID":65569,"ELEMENT_SET_NO":999,"REV_AT_EPOCH":2251,"BSTAR":0.00061128716,"MEAN_MOTION_DOT":6.86e-06,"MEAN_MOTION_DDOT":0},{"OBJECT_NAME":"PRAETORIAN SDA_607","OBJECT_ID":"2025-203F","EPOCH":"2026-02-21T04:03:03.830976","MEAN_MOTION":13.84526396,"ECCENTRICITY":0.00099463,"INCLINATION":81.3035,"RA_OF_ASC_NODE":118.1153,"ARG_OF_PERICENTER":142.0191,"MEAN_ANOMALY":218.1669,"EPHEMERIS_TYPE":0,"CLASSIFICATION_TYPE":"U","NORAD_CAT_ID":65570,"ELEMENT_SET_NO":999,"REV_AT_EPOCH":2265,"BSTAR":0.00012907232,"MEAN_MOTION_DOT":1.57e-06,"MEAN_MOTION_DDOT":0},{"OBJECT_NAME":"PRAETORIAN SDA_608","OBJECT_ID":"2025-203G","EPOCH":"2026-02-21T05:58:39.479520","MEAN_MOTION":13.8392852,"ECCENTRICITY":0.00069041,"INCLINATION":81.3004,"RA_OF_ASC_NODE":118.151,"ARG_OF_PERICENTER":148.0116,"MEAN_ANOMALY":212.146,"EPHEMERIS_TYPE":0,"CLASSIFICATION_TYPE":"U","NORAD_CAT_ID":65571,"ELEMENT_SET_NO":999,"REV_AT_EPOCH":2265,"BSTAR":4.6309949e-05,"MEAN_MOTION_DOT":6.3e-07,"MEAN_MOTION_DDOT":0},{"OBJECT_NAME":"PRAETORIAN SDA_609","OBJECT_ID":"2025-203H","EPOCH":"2026-02-21T03:31:34.518720","MEAN_MOTION":13.84362639,"ECCENTRICITY":0.00078746,"INCLINATION":81.3046,"RA_OF_ASC_NODE":118.2565,"ARG_OF_PERICENTER":141.5113,"MEAN_ANOMALY":218.6606,"EPHEMERIS_TYPE":0,"CLASSIFICATION_TYPE":"U","NORAD_CAT_ID":65572,"ELEMENT_SET_NO":999,"REV_AT_EPOCH":2264,"BSTAR":1.3993786e-05,"MEAN_MOTION_DOT":2.8e-07,"MEAN_MOTION_DDOT":0},{"OBJECT_NAME":"PRAETORIAN SDA_610","OBJECT_ID":"2025-203J","EPOCH":"2026-02-21T03:53:13.617024","MEAN_MOTION":13.8400526,"ECCENTRICITY":0.00075027,"INCLINATION":81.302,"RA_OF_ASC_NODE":118.1981,"ARG_OF_PERICENTER":143.448,"MEAN_ANOMALY":216.719,"EPHEMERIS_TYPE":0,"CLASSIFICATION_TYPE":"U","NORAD_CAT_ID":65573,"ELEMENT_SET_NO":999,"REV_AT_EPOCH":2264,"BSTAR":-0.0022024781,"MEAN_MOTION_DOT":-2.434e-05,"MEAN_MOTION_DDOT":0},{"OBJECT_NAME":"PRAETORIAN SDA_611","OBJECT_ID":"2025-203K","EPOCH":"2026-02-21T06:09:23.782464","MEAN_MOTION":13.83469518,"ECCENTRICITY":0.00067807,"INCLINATION":81.2998,"RA_OF_ASC_NODE":118.1706,"ARG_OF_PERICENTER":150.3588,"MEAN_ANOMALY":209.7954,"EPHEMERIS_TYPE":0,"CLASSIFICATION_TYPE":"U","NORAD_CAT_ID":65574,"ELEMENT_SET_NO":999,"REV_AT_EPOCH":2265,"BSTAR":-0.00015592105,"MEAN_MOTION_DOT":-1.6e-06,"MEAN_MOTION_DDOT":0},{"OBJECT_NAME":"PRAETORIAN SDA_612","OBJECT_ID":"2025-203L","EPOCH":"2026-02-21T05:54:13.139424","MEAN_MOTION":13.85079448,"ECCENTRICITY":0.00102424,"INCLINATION":81.302,"RA_OF_ASC_NODE":118.0504,"ARG_OF_PERICENTER":143.7623,"MEAN_ANOMALY":216.423,"EPHEMERIS_TYPE":0,"CLASSIFICATION_TYPE":"U","NORAD_CAT_ID":65575,"ELEMENT_SET_NO":999,"REV_AT_EPOCH":2266,"BSTAR":-0.00042895603,"MEAN_MOTION_DOT":-4.73e-06,"MEAN_MOTION_DDOT":0},{"OBJECT_NAME":"PRAETORIAN SDA_613","OBJECT_ID":"2025-203M","EPOCH":"2026-02-19T22:16:19.788384","MEAN_MOTION":13.83711845,"ECCENTRICITY":0.0007269,"INCLINATION":81.2994,"RA_OF_ASC_NODE":119.3323,"ARG_OF_PERICENTER":147.5831,"MEAN_ANOMALY":212.5773,"EPHEMERIS_TYPE":0,"CLASSIFICATION_TYPE":"U","NORAD_CAT_ID":65576,"ELEMENT_SET_NO":999,"REV_AT_EPOCH":2247,"BSTAR":-0.00011923,"MEAN_MOTION_DOT":-1.2e-06,"MEAN_MOTION_DDOT":0},{"OBJECT_NAME":"PRAETORIAN SDA_614","OBJECT_ID":"2025-203N","EPOCH":"2026-02-21T03:22:56.740800","MEAN_MOTION":13.84794191,"ECCENTRICITY":0.00079471,"INCLINATION":81.3003,"RA_OF_ASC_NODE":118.1959,"ARG_OF_PERICENTER":141.5018,"MEAN_ANOMALY":218.6707,"EPHEMERIS_TYPE":0,"CLASSIFICATION_TYPE":"U","NORAD_CAT_ID":65577,"ELEMENT_SET_NO":999,"REV_AT_EPOCH":2265,"BSTAR":-0.00062013474,"MEAN_MOTION_DOT":-6.86e-06,"MEAN_MOTION_DDOT":0},{"OBJECT_NAME":"PRAETORIAN SDA_615","OBJECT_ID":"2025-203P","EPOCH":"2026-02-21T05:36:59.107680","MEAN_MOTION":13.84534045,"ECCENTRICITY":0.00086397,"INCLINATION":81.301,"RA_OF_ASC_NODE":117.9987,"ARG_OF_PERICENTER":144.895,"MEAN_ANOMALY":215.2778,"EPHEMERIS_TYPE":0,"CLASSIFICATION_TYPE":"U","NORAD_CAT_ID":65578,"ELEMENT_SET_NO":999,"REV_AT_EPOCH":2266,"BSTAR":-0.005368336,"MEAN_MOTION_DOT":-6.002e-05,"MEAN_MOTION_DDOT":0},{"OBJECT_NAME":"PRAETORIAN SDA_616","OBJECT_ID":"2025-203Q","EPOCH":"2026-02-21T06:07:54.228864","MEAN_MOTION":13.83399809,"ECCENTRICITY":0.00066062,"INCLINATION":81.3061,"RA_OF_ASC_NODE":118.2469,"ARG_OF_PERICENTER":142.3624,"MEAN_ANOMALY":217.7996,"EPHEMERIS_TYPE":0,"CLASSIFICATION_TYPE":"U","NORAD_CAT_ID":65579,"ELEMENT_SET_NO":999,"REV_AT_EPOCH":2265,"BSTAR":-0.0014219535,"MEAN_MOTION_DOT":-1.551e-05,"MEAN_MOTION_DDOT":0}]