SAPPHIRE                
1 39088U 13009C   26052.29428525  .00000127  00000+0  59214-4 0  9997
2 39088  98.4203 234.5154 0010317 230.3815 129.6460 14.35200876679954
PRAETORIAN SDA_602      
1 65565U 25203A   26052.23795657  .00000093  00000+0  72428-4 0  9996
2 65565  81.3024 118.1811 0006888 142.0587 218.1056 13.84414283 22651
PRAETORIAN SDA_603      
1 65566U 25203B   26052.22855837  .00000021  00000+0  78097-5 0  9993
2 65566  81.3028 118.0240 0010469 144.1718 216.0143 13.84084865 22664
PRAETORIAN SDA_604      
1 65567U 25203C   26052.24793847  .00000528  00000+0  47213-3 0  9994
2 65567  81.3050 118.2392 0006651 146.0527 214.1056 13.83109299 22656
PRAETORIAN SDA_605      
1 65568U 25203D   26052.24912332 -.00000007  00000+0 -17505-4 0  9993
2 65568  81.3006 118.0209 0009547 141.6703 218.5133 13.83680463 22669
PRAETORIAN SDA_606      
1 65569U 25203E   26051.22204100  .00000686  00000+0  61129-3 0  9999
2 65569  81.3047 119.1532 0006851 140.8438 219.3215 13.83594929 22512
PRAETORIAN SDA_607      
1 65570U 25203F   26052.16879434  .00000157  00000+0  12907-3 0  9996
2 65570  81.3035 118.1153 0009946 142.0191 218.1669 13.84526396 22656
PRAETORIAN SDA_608      
1 65571U 25203G   26052.24906805  .00000063  00000+0  46310-4 0  9991
2 65571  81.3004 118.1510 0006904 148.0116 212.1460 13.83928520 22651
PRAETORIAN SDA_609      
1 65572U 25203H   26052.14692730  .00000028  00000+0  13994-4 0  9993
2 65572  81.3046 118.2565 0007874 141.5113 218.6606 13.84362639 22647
PRAETORIAN SDA_610      
1 65573U 25203J   26052.16196316 -.00002434  00000+0 -22025-2 0  9993
2 65573  81.3020 118.1981 0007502 143.4480 216.7190 13.84005260 22648
PRAETORIAN SDA_611      
1 65574U 25203K   26052.25652526 -.00000160  00000+0 -15592-3 0  9990
2 65574  81.2998 118.1706 0006780 150.3588 209.7954 13.83469518 22650
PRAETORIAN SDA_612      
1 65575U 25203L   26052.24598541 -.00000473  00000+0 -42896-3 0  9990
2 65575  81.3020 118.0504 0010242 143.7623 216.4230 13.85079448 22661
PRAETORIAN SDA_613      
1 65576U 25203M   26050.92800681 -.00000120  00000+0 -11923-3 0  9991
2 65576  81.2994 119.3323 0007269 147.5831 212.5773 13.83711845 22472
PRAETORIAN SDA_614      
1 65577U 25203N   26052.14093450 -.00000686  00000+0 -62013-3 0  9999
2 65577  81.3003 118.1959 0007947 141.5018 218.6707 13.84794191 22651
PRAETORIAN SDA_615      
1 65578U 25203P   26052.23401745 -.00006002  00000+0 -53683-2 0  9990
2 65578  81.3010 117.9987 0008639 144.8950 215.2778 13.84534045 22660
PRAETORIAN SDA_616      
1 65579U 25203Q   26052.25548876 -.00001551  00000+0 -14220-2 0  9998
2 65579  81.3061 118.2469 0006606 142.3624 217.7996 13.83399809 22653
